start=new Date('2023-01-02T00:00:00.000Z').valueOf();
sats=[{"TLE_LINE1":"1 52616U 22052U   23001.51050214 -.00002764  00000-0 -15563-3 0  9999","SITE":"AFETR","DECAY_DATE":null,"BSTAR":"-0.00015563000000","MEAN_MOTION_DDOT":"0.0000000000000","EPOCH":"2023-01-01T12:15:07.384896","ECCENTRICITY":"0.00026050","OBJECT_ID":"2022-052U","REV_AT_EPOCH":"3539","COUNTRY_CODE":"US","MEAN_ANOMALY":"347.4092","OBJECT_TYPE":"PAYLOAD","GP_ID":"221990668","LAUNCH_DATE":"2022-05-14","TLE_LINE2":"2 52616  53.2182  90.8376 0002605  12.6965 347.4092 15.08832662 35398","TIME_SYSTEM":"UTC","INCLINATION":"53.2182","OBJECT_NAME":"STARLINK-4015","RA_OF_ASC_NODE":"90.8376","MEAN_ELEMENT_THEORY":"SGP4","MEAN_MOTION_DOT":"-0.00002764","ELEMENT_SET_NO":"999","CLASSIFICATION_TYPE":"U","NORAD_CAT_ID":"52616","CENTER_NAME":"EARTH","SEMIMAJOR_AXIS":"6917.903","EPHEMERIS_TYPE":"0","PERIAPSIS":"537.966","PERIOD":"95.438","ARG_OF_PERICENTER":"12.6965","MEAN_MOTION":"15.08832662","APOAPSIS":"541.570","FILE":"3728952","RCS_SIZE":"LARGE","REF_FRAME":"TEME"},{"RCS_SIZE":"LARGE","REF_FRAME":"TEME","FILE":"3728759","APOAPSIS":"541.132","MEAN_MOTION":"15.08827737","ARG_OF_PERICENTER":"27.5013","SEMIMAJOR_AXIS":"6917.918","PERIOD":"95.438","PERIAPSIS":"538.434","EPHEMERIS_TYPE":"0","ELEMENT_SET_NO":"999","MEAN_MOTION_DOT":"-0.00003176","MEAN_ELEMENT_THEORY":"SGP4","NORAD_CAT_ID":"52617","CENTER_NAME":"EARTH","CLASSIFICATION_TYPE":"U","TIME_SYSTEM":"UTC","RA_OF_ASC_NODE":"90.8608","OBJECT_NAME":"STARLINK-3996","INCLINATION":"53.2203","LAUNCH_DATE":"2022-05-14","TLE_LINE2":"2 52617  53.2203  90.8608 0001950  27.5013 332.6082 15.08827737 35383","REV_AT_EPOCH":"3538","OBJECT_ID":"2022-052V","ECCENTRICITY":"0.00019500","OBJECT_TYPE":"PAYLOAD","GP_ID":"221934058","MEAN_ANOMALY":"332.6082","COUNTRY_CODE":"US","DECAY_DATE":null,"TLE_LINE1":"1 52617U 22052V   23001.50314524 -.00003176  00000-0 -18159-3 0  9998","SITE":"AFETR","BSTAR":"-0.00018159000000","EPOCH":"2023-01-01T12:04:31.748736","MEAN_MOTION_DDOT":"0.0000000000000"},{"LAUNCH_DATE":"2022-05-14","TLE_LINE2":"2 52618  53.2158  90.8571 0002406  21.8872 338.2223 15.08828709 35388","TIME_SYSTEM":"UTC","RA_OF_ASC_NODE":"90.8571","OBJECT_NAME":"STARLINK-3983","INCLINATION":"53.2158","TLE_LINE1":"1 52618U 22052W   23001.50680433 -.00006527  00000-0 -39243-3 0  9994","DECAY_DATE":null,"BSTAR":"-0.00039243000000","SITE":"AFETR","EPOCH":"2023-01-01T12:09:47.894112","MEAN_MOTION_DDOT":"0.0000000000000","REV_AT_EPOCH":"3538","OBJECT_ID":"2022-052W","ECCENTRICITY":"0.00024060","GP_ID":"221990167","OBJECT_TYPE":"PAYLOAD","MEAN_ANOMALY":"338.2223","COUNTRY_CODE":"US","FILE":"3728952","APOAPSIS":"541.444","MEAN_MOTION":"15.08828709","ARG_OF_PERICENTER":"21.8872","RCS_SIZE":"LARGE","REF_FRAME":"TEME","ELEMENT_SET_NO":"999","MEAN_MOTION_DOT":"-0.00006527","MEAN_ELEMENT_THEORY":"SGP4","NORAD_CAT_ID":"52618","CENTER_NAME":"EARTH","CLASSIFICATION_TYPE":"U","SEMIMAJOR_AXIS":"6917.915","PERIOD":"95.438","EPHEMERIS_TYPE":"0","PERIAPSIS":"538.115"},{"TLE_LINE1":"1 52619U 22052X   23001.50042347 -.00001657  00000-0 -86027-4 0  9993","BSTAR":"-0.00008602700000","DECAY_DATE":null,"SITE":"AFETR","MEAN_MOTION_DDOT":"0.0000000000000","EPOCH":"2023-01-01T12:00:36.587808","ECCENTRICITY":"0.00022610","OBJECT_ID":"2022-052X","REV_AT_EPOCH":"3538","COUNTRY_CODE":"US","MEAN_ANOMALY":"333.9016","GP_ID":"221989918","OBJECT_TYPE":"PAYLOAD","LAUNCH_DATE":"2022-05-14","TLE_LINE2":"2 52619  53.2189  90.8962 0002261  26.2090 333.9016 15.08831795 35388","TIME_SYSTEM":"UTC","INCLINATION":"53.2189","OBJECT_NAME":"STARLINK-3741","RA_OF_ASC_NODE":"90.8962","MEAN_ELEMENT_THEORY":"SGP4","MEAN_MOTION_DOT":"-0.00001657","ELEMENT_SET_NO":"999","CLASSIFICATION_TYPE":"U","CENTER_NAME":"EARTH","NORAD_CAT_ID":"52619","SEMIMAJOR_AXIS":"6917.905","EPHEMERIS_TYPE":"0","PERIAPSIS":"538.206","PERIOD":"95.438","ARG_OF_PERICENTER":"26.2090","MEAN_MOTION":"15.08831795","APOAPSIS":"541.335","FILE":"3728952","RCS_SIZE":"LARGE","REF_FRAME":"TEME"},{"EPOCH":"2023-01-01T16:40:44.247648","MEAN_MOTION_DDOT":"0.0000000000000","TLE_LINE1":"1 52620U 22052Y   23001.69495657 -.00002342  00000-0 -12912-3 0  9994","SITE":"AFETR","DECAY_DATE":null,"BSTAR":"-0.00012912000000","OBJECT_TYPE":"PAYLOAD","GP_ID":"221991168","MEAN_ANOMALY":"326.2830","COUNTRY_CODE":"US","REV_AT_EPOCH":"3520","OBJECT_ID":"2022-052Y","ECCENTRICITY":"0.00027230","TLE_LINE2":"2 52620  53.2181 105.0068 0002723  33.8335 326.2830 15.08828364 35205","LAUNCH_DATE":"2022-05-14","RA_OF_ASC_NODE":"105.0068","OBJECT_NAME":"STARLINK-3975","INCLINATION":"53.2181","TIME_SYSTEM":"UTC","NORAD_CAT_ID":"52620","CENTER_NAME":"EARTH","CLASSIFICATION_TYPE":"U","ELEMENT_SET_NO":"999","MEAN_MOTION_DOT":"-0.00002342","MEAN_ELEMENT_THEORY":"SGP4","PERIOD":"95.438","PERIAPSIS":"537.897","EPHEMERIS_TYPE":"0","SEMIMAJOR_AXIS":"6917.916","FILE":"3728952","APOAPSIS":"541.665","MEAN_MOTION":"15.08828364","ARG_OF_PERICENTER":"33.8335","REF_FRAME":"TEME","RCS_SIZE":"LARGE"},{"OBJECT_ID":"2022-052Z","ECCENTRICITY":"0.00023160","REV_AT_EPOCH":"3540","COUNTRY_CODE":"US","OBJECT_TYPE":"PAYLOAD","GP_ID":"221991418","MEAN_ANOMALY":"335.0602","TLE_LINE1":"1 52621U 22052Z   23001.62458798 -.00003525  00000-0 -20352-3 0  9994","SITE":"AFETR","DECAY_DATE":null,"BSTAR":"-0.00020352000000","EPOCH":"2023-01-01T14:59:24.401472","MEAN_MOTION_DDOT":"0.0000000000000","TIME_SYSTEM":"UTC","INCLINATION":"53.2170","RA_OF_ASC_NODE":"90.3283","OBJECT_NAME":"STARLINK-3984","LAUNCH_DATE":"2022-05-14","TLE_LINE2":"2 52621  53.2170  90.3283 0002316  25.0502 335.0602 15.08823280 35405","SEMIMAJOR_AXIS":"6917.931","EPHEMERIS_TYPE":"0","PERIAPSIS":"538.194","PERIOD":"95.439","MEAN_MOTION_DOT":"-0.00003525","MEAN_ELEMENT_THEORY":"SGP4","ELEMENT_SET_NO":"999","CLASSIFICATION_TYPE":"U","NORAD_CAT_ID":"52621","CENTER_NAME":"EARTH","RCS_SIZE":"LARGE","REF_FRAME":"TEME","MEAN_MOTION":"15.08823280","ARG_OF_PERICENTER":"25.0502","FILE":"3728952","APOAPSIS":"541.399"},{"REV_AT_EPOCH":"3519","ECCENTRICITY":"0.00020710","OBJECT_ID":"2022-052AA","MEAN_ANOMALY":"328.0382","OBJECT_TYPE":"PAYLOAD","GP_ID":"221989668","COUNTRY_CODE":"US","SITE":"AFETR","TLE_LINE1":"1 52622U 22052AA  23001.59191259 -.00004902  00000-0 -29020-3 0  9998","DECAY_DATE":null,"BSTAR":"-0.00029020000000","MEAN_MOTION_DDOT":"0.0000000000000","EPOCH":"2023-01-01T14:12:21.247776","TIME_SYSTEM":"UTC","OBJECT_NAME":"STARLINK-4008","RA_OF_ASC_NODE":"105.4747","INCLINATION":"53.2158","LAUNCH_DATE":"2022-05-14","TLE_LINE2":"2 52622  53.2158 105.4747 0002071  32.0736 328.0382 15.08827274 35190","SEMIMAJOR_AXIS":"6917.919","PERIOD":"95.438","PERIAPSIS":"538.352","EPHEMERIS_TYPE":"0","ELEMENT_SET_NO":"999","MEAN_ELEMENT_THEORY":"SGP4","MEAN_MOTION_DOT":"-0.00004902","NORAD_CAT_ID":"52622","CENTER_NAME":"EARTH","CLASSIFICATION_TYPE":"U","RCS_SIZE":"LARGE","REF_FRAME":"TEME","APOAPSIS":"541.217","FILE":"3728952","ARG_OF_PERICENTER":"32.0736","MEAN_MOTION":"15.08827274"},{"RCS_SIZE":"LARGE","REF_FRAME":"TEME","MEAN_MOTION":"15.08804976","ARG_OF_PERICENTER":"8.1902","FILE":"3728952","APOAPSIS":"541.291","SEMIMAJOR_AXIS":"6917.987","EPHEMERIS_TYPE":"0","PERIAPSIS":"538.414","PERIOD":"95.440","MEAN_MOTION_DOT":"0.00017603","MEAN_ELEMENT_THEORY":"SGP4","ELEMENT_SET_NO":"999","CLASSIFICATION_TYPE":"U","NORAD_CAT_ID":"52623","CENTER_NAME":"EARTH","TIME_SYSTEM":"UTC","INCLINATION":"53.2154","RA_OF_ASC_NODE":"90.3441","OBJECT_NAME":"STARLINK-3986","LAUNCH_DATE":"2022-05-14","TLE_LINE2":"2 52623  53.2154  90.3441 0002079   8.1902 351.9124 15.08804976 35404","OBJECT_ID":"2022-052AB","ECCENTRICITY":"0.00020790","REV_AT_EPOCH":"3540","COUNTRY_CODE":"US","GP_ID":"221990417","OBJECT_TYPE":"PAYLOAD","MEAN_ANOMALY":"351.9124","TLE_LINE1":"1 52623U 22052AB  23001.62089270  .00017603  00000-0  11224-2 0  9998","BSTAR":"0.00112240000000","DECAY_DATE":null,"SITE":"AFETR","EPOCH":"2023-01-01T14:54:05.129280","MEAN_MOTION_DDOT":"0.0000000000000"},{"RCS_SIZE":"LARGE","REF_FRAME":"TEME","FILE":"3728952","APOAPSIS":"541.643","MEAN_MOTION":"15.08828864","ARG_OF_PERICENTER":"21.8996","SEMIMAJOR_AXIS":"6917.914","PERIOD":"95.438","PERIAPSIS":"537.916","EPHEMERIS_TYPE":"0","ELEMENT_SET_NO":"999","MEAN_MOTION_DOT":"-0.00002294","MEAN_ELEMENT_THEORY":"SGP4","CENTER_NAME":"EARTH","NORAD_CAT_ID":"52624","CLASSIFICATION_TYPE":"U","TIME_SYSTEM":"UTC","RA_OF_ASC_NODE":"90.8918","OBJECT_NAME":"STARLINK-4009","INCLINATION":"53.2175","LAUNCH_DATE":"2022-05-14","TLE_LINE2":"2 52624  53.2175  90.8918 0002694  21.8996 338.2110 15.08828864 35382","REV_AT_EPOCH":"3538","OBJECT_ID":"2022-052AC","ECCENTRICITY":"0.00026940","OBJECT_TYPE":"PAYLOAD","GP_ID":"221990669","MEAN_ANOMALY":"338.2110","COUNTRY_CODE":"US","BSTAR":"-0.00012609000000","TLE_LINE1":"1 52624U 22052AC  23001.49946900 -.00002294  00000-0 -12609-3 0  9997","DECAY_DATE":null,"SITE":"AFETR","EPOCH":"2023-01-01T11:59:14.121600","MEAN_MOTION_DDOT":"0.0000000000000"},{"TIME_SYSTEM":"UTC","INCLINATION":"53.2191","RA_OF_ASC_NODE":"90.6613","OBJECT_NAME":"STARLINK-3988","LAUNCH_DATE":"2022-05-14","TLE_LINE2":"2 52625  53.2191  90.6613 0001998  33.0524 327.0593 15.08826673 35397","OBJECT_ID":"2022-052AD","ECCENTRICITY":"0.00019980","REV_AT_EPOCH":"3539","COUNTRY_CODE":"US","OBJECT_TYPE":"PAYLOAD","GP_ID":"221990919","MEAN_ANOMALY":"327.0593","TLE_LINE1":"1 52625U 22052AD  23001.55098238 -.00002111  00000-0 -11459-3 0  9997","BSTAR":"-0.00011459000000","DECAY_DATE":null,"SITE":"AFETR","EPOCH":"2023-01-01T13:13:24.877632","MEAN_MOTION_DDOT":"0.0000000000000","RCS_SIZE":"LARGE","REF_FRAME":"TEME","MEAN_MOTION":"15.08826673","ARG_OF_PERICENTER":"33.0524","FILE":"3728952","APOAPSIS":"541.168","SEMIMAJOR_AXIS":"6917.921","PERIAPSIS":"538.404","EPHEMERIS_TYPE":"0","PERIOD":"95.438","MEAN_MOTION_DOT":"-0.00002111","MEAN_ELEMENT_THEORY":"SGP4","ELEMENT_SET_NO":"999","CLASSIFICATION_TYPE":"U","NORAD_CAT_ID":"52625","CENTER_NAME":"EARTH"}];
